[{"OBJECT_NAME":"WNISAT 1R","OBJECT_ID":"2017-042L","EPOCH":"2026-03-09T20:41:10.613760","MEAN_MOTION":15.01153186,"ECCENTRICITY":0.00133015,"INCLINATION":97.4515,"RA_OF_ASC_NODE":228.7079,"ARG_OF_PERICENTER":131.3338,"MEAN_ANOMALY":228.9034,"EPHEMERIS_TYPE":0,"CLASSIFICATION_TYPE":"U","NORAD_CAT_ID":42835,"ELEMENT_SET_NO":999,"REV_AT_EPOCH":47160,"BSTAR":0.00037839839,"MEAN_MOTION_DOT":4.802e-5,"MEAN_MOTION_DDOT":0},{"OBJECT_NAME":"STARLINK-34487","OBJECT_ID":"2025-129F","EPOCH":"2026-03-09T23:28:57.027648","MEAN_MOTION":14.98334211,"ECCENTRICITY":0.00038064,"INCLINATION":70.0014,"RA_OF_ASC_NODE":73.6074,"ARG_OF_PERICENTER":270.3805,"MEAN_ANOMALY":89.6918,"EPHEMERIS_TYPE":0,"CLASSIFICATION_TYPE":"U","NORAD_CAT_ID":64417,"ELEMENT_SET_NO":999,"REV_AT_EPOCH":4127,"BSTAR":0.0002173376,"MEAN_MOTION_DOT":2.501e-5,"MEAN_MOTION_DDOT":0}]
